              M50 Cartesian                         M50 Keplerian  
    -----------------------------------       --------------------------------
     X    =        4190781.57                 A    =         6779228.91  meter
     Y    =        2472548.29  meter          E    =           .0008312
     Z    =        4714410.52                 I    =           51.51044
     XDOT =      -5676.030344                 Wp   =          105.47757
     YDOT =       4371.100770  meter/sec      RA   =          340.15092  deg
     ZDOT =       2746.885536                 TA   =          317.27115
                                              MA   =          317.33575
                                              Ha   =            221.070  n.mi
                                              Hp   =            213.917
 
              M50 Cartesian                         J2K Cartesian  
    -----------------------------------       --------------------------------
     X    =       13749283.37                 X    =         4139920.49
     Y    =        8112035.09  feet           Y    =         2519128.40  meter
     Z    =       15467226.12                 Z    =         4734644.90
     XDOT =     -18622.146799                 XDOT =       -5737.830640
     YDOT =      14340.881791  feet/sec       YDOT =        4307.282294  meter/sec
     ZDOT =       9012.091653                 ZDOT =        2719.161883
 
              TDR Cartesian                         TDR Cartesian  
    -----------------------------------       --------------------------------
     X    =       15830127.04                 X    =         4825022.72
     Y    =       -1242554.10  feet           Y    =         -378730.49  meter
     Z    =       15554617.56                 Z    =         4741047.43
     XDOT =      -7081.397822                 XDOT =       -2158.410056
     YDOT =      21334.430629  feet/sec       YDOT =        6502.734456  meter/sec
     ZDOT =       8890.815428                 ZDOT =        2709.920542
  
  
    The mean element set is posted at the UTC for which position is
    just north of the next ascending node relative to the above
    vector time
 
 
    TWO LINE MEAN ELEMENT SET
  
    ISS
    1 25544U 98067A   16112.56985141  .00016717  00000-0  10270-3 0  9119
    2 25544  51.6435 340.4388 0001755  42.4989 317.6299 15.54317621 36179
  
  
    Satellite: ISS
    Catalog Number: 25544
    Epoch time:      16112.56985141   =   yrday.fracday
    Element set:     911
    Inclination:       51.6435  deg
    RA of node:       340.4388  deg
    Eccentricity:     .0001755     
    Arg of perigee:    42.4989  deg
    Mean anomaly:     317.6299  deg
    Mean motion:   15.54317621  rev/day
    Decay rate:    1.67170E-04  rev/day^2
    Epoch rev:            3617
    Checksum:              322
 
 
    Coasting Arc #13 (Orbit 3631)
    ---------------------------------------
 
    Vector Time (GMT): 2016/113/12:24:13.979
    Vector Time (MET): N/A
    Weight (LBS)     : 945061.1
 
              M50 Cartesian                         M50 Keplerian  
    -----------------------------------       --------------------------------
     X    =       -2598456.37                 A    =         6776848.37  meter
     Y    =       -3412512.47  meter          E    =           .0015820
     Z    =       -5260582.95                 I    =           51.47168
     XDOT =       6610.618222                 Wp   =           79.57650
     YDOT =      -3777.463459  meter/sec      RA   =          335.13972  deg
     ZDOT =       -814.171166                 TA   =          182.60772
                                              MA   =          182.61598
                                              Ha   =            221.058  n.mi
                                              Hp   =            213.773
 
              M50 Cartesian                         J2K Cartesian  
    -----------------------------------       --------------------------------
     X    =       -8525119.32                 X    =        -2534549.55
     Y    =      -11195907.04  feet           Y    =        -3441213.15  meter
     Z    =      -17259130.41                 Z    =        -5273050.39
     XDOT =      21688.379992                 XDOT =        6656.322410
     YDOT =     -12393.252817  feet/sec       YDOT =       -3703.283633  meter/sec
     ZDOT =      -2671.165243                 ZDOT =        -781.946576
 
              TDR Cartesian                         TDR Cartesian  
    -----------------------------------       --------------------------------
     X    =      -13403099.73                 X    =        -4085264.80
     Y    =       -4066254.08  feet           Y    =        -1239394.24  meter
     Z    =      -17312598.64                 Z    =        -5276880.06
     XDOT =       9898.378720                 XDOT =        3017.025834
     YDOT =     -21843.115255  feet/sec       YDOT =       -6657.781530  meter/sec
     ZDOT =      -2530.467549                 ZDOT =        -771.286509
  
  
    The mean element set is posted at the UTC for which position is
    just north of the next ascending node relative to the above
    vector time
 
 
    TWO LINE MEAN ELEMENT SET
  
    ISS
    1 25544U 98067A   16113.53424296  .00016717  00000-0  10270-3 0  9127
    2 25544  51.6421 335.6285 0001644  41.6019 318.5258 15.54371296 36328
  
  
    Satellite: ISS
    Catalog Number: 25544
    Epoch time:      16113.53424296   =   yrday.fracday
    Element set:     912
    Inclination:       51.6421  deg
    RA of node:       335.6285  deg
    Eccentricity:     .0001644     
    Arg of perigee:    41.6019  deg
    Mean anomaly:     318.5258  deg
    Mean motion:   15.54371296  rev/day
    Decay rate:    1.67170E-04  rev/day^2
    Epoch rev:            3632
    Checksum:              299
 
 
    Coasting Arc #14 (Orbit 3647)
    ---------------------------------------
 
    Vector Time (GMT): 2016/114/12:24:13.979
    Vector Time (MET): N/A
    Weight (LBS)     : 945061.1
 
              M50 Cartesian                         M50 Keplerian  
    -----------------------------------       --------------------------------
     X    =         870205.22                 A    =         6777143.15  meter
     Y    =        4268824.17  meter          E    =           .0005706
     Z    =        5188020.44                 I    =           51.44416
     XDOT =      -6996.496907                 Wp   =           52.10112
     YDOT =       2904.882042  meter/sec      RA   =          330.12434  deg
     ZDOT =      -1212.306584                 TA   =           49.58171
                                              MA   =           49.53194
                                              Ha   =            221.019  n.mi
                                              Hp   =            213.860
 
              M50 Cartesian                         J2K Cartesian  
    -----------------------------------       --------------------------------
     X    =        2855004.00                 X    =          797203.82
     Y    =       14005328.65  feet           Y    =         4278147.46  meter
     Z    =       17021064.42                 Z    =         5192070.24
     XDOT =     -22954.386178                 XDOT =       -7022.571045
     YDOT =       9530.452894  feet/sec       YDOT =        2826.496712  meter/sec
     ZDOT =      -3977.383806                 ZDOT =       -1246.357958
 
              TDR Cartesian                         TDR Cartesian  
    -----------------------------------       --------------------------------
     X    =       10653246.34                 X    =         3247109.48
     Y    =        9499392.09  feet           Y    =         2895414.71  meter
     Z    =       17037805.17                 Z    =         5193123.01
     XDOT =     -11813.326422                 XDOT =       -3600.701894
     YDOT =      20673.784507  feet/sec       YDOT =        6301.369518  meter/sec
     ZDOT =      -4125.833890                 ZDOT =       -1257.554170
  
  
    The mean element set is posted at the UTC for which position is
    just north of the next ascending node relative to the above
    vector time
 
 
    TWO LINE MEAN ELEMENT SET
  
    ISS
    1 25544U 98067A   16114.56291761  .00016717  00000-0  10270-3 0  9131
    2 25544  51.6423 330.4984 0001575  44.5812 315.5467 15.54378029 36482
  
  
    Satellite: ISS
    Catalog Number: 25544
    Epoch time:      16114.56291761   =   yrday.fracday
    Element set:     913
    Inclination:       51.6423  deg
    RA of node:       330.4984  deg
    Eccentricity:     .0001575     
    Arg of perigee:    44.5812  deg
    Mean anomaly:     315.5467  deg
    Mean motion:   15.54378029  rev/day
    Decay rate:    1.67170E-04  rev/day^2
    Epoch rev:            3648
    Checksum:              317
 
 
    Coasting Arc #15 (Orbit 3662)
    ---------------------------------------
 
    Vector Time (GMT): 2016/115/12:24:13.979
    Vector Time (MET): N/A
    Weight (LBS)     : 945061.1
 
              M50 Cartesian                         M50 Keplerian  
    -----------------------------------       --------------------------------
     X    =         803006.48                 A    =         6779828.91  meter
     Y    =       -4977449.99  meter          E    =           .0010598
     Z    =       -4542968.34                 I    =           51.42451
     XDOT =       6790.812080                 Wp   =          102.37912
     YDOT =      -1725.918471  meter/sec      RA   =          325.10973  deg
     ZDOT =       3095.210213                 TA   =          198.72362
                                              MA   =          198.76263
                                              Ha   =            221.032  n.mi
                                              Hp   =            213.811
 
